IRIDIUM 171             
1 43929U 19002H   25299.92517122  .00000227  00000+0  73821-4 0  9990
2 43929  86.3935  91.3731 0001750  93.0069 267.1327 14.34218687355529
IRIDIUM 170             
1 43930U 19002J   25299.89999047  .00001364  00000+0  21236-3 0  9993
2 43930  86.6046  91.1075 0002229  89.4750 270.6723 14.72247473364935
IRIDIUM 167             
1 43931U 19002K   25299.91882875  .00000259  00000+0  85410-4 0  9994
2 43931  86.3928  91.1156 0001658  85.0816 275.0569 14.34218584355523
IRIDIUM 181             
1 56726U 23068S   25299.67450711  .00000463  00000+0  13142-3 0  9999
2 56726  86.4529 154.3814 0001801 100.0792 260.0612 14.43317034128757
IRIDIUM 177             
1 56727U 23068T   25299.89423971  .00002283  00000+0  29700-3 0  9991
2 56727  86.1942  79.5768 0002244  86.4694 273.6783 14.80231524131854
IRIDIUM 174             
1 56728U 23068U   25299.88763898  .00001666  00000+0  26025-3 0  9997
2 56728  86.6057  91.2368 0002719  85.3992 274.7536 14.72266328131691
IRIDIUM 178             
1 56729U 23068V   25299.95092495  .00000410  00000+0  50466-4 0  9997
2 56729  86.6512 122.8534 0001975  84.9889 275.1558 14.80238319131863
IRIDIUM 179             
1 56730U 23068W   25299.94556933  .00000655  00000+0  82804-4 0  9992
2 56730  86.6765 131.1348 0001563  80.9071 279.2328 14.80238243131869
